{
  "type": "FeatureCollection",
  "features": [
    {
      "type": "Feature",
      "properties": {
        "norad_id": 41866,
        "name": "GOES 16",
        "group": "weather",
        "lat": 0.009727261415949297,
        "lon": -111.27331181564874,
        "alt_km": 35773.46121582463,
        "timestamp": "2025-12-16T17:51:10.567165+00:00",
        "meta_object_name": "GOES 16",
        "meta_object_id": "2016-071A",
        "meta_epoch": "2025-12-15T21:27:04.890240",
        "meta_mean_motion": 1.00271781,
        "meta_eccentricity": 0.00030853,
        "meta_inclination": 0.071,
        "meta_ra_of_asc_node": 103.1018,
        "meta_arg_of_pericenter": 160.6869,
        "meta_mean_anomaly": 38.0973,
        "meta_ephemeris_type": 0,
        "meta_classification_type": "U",
        "meta_norad_cat_id": 41866,
        "meta_element_set_no": 999,
        "meta_rev_at_epoch": 3326,
        "meta_bstar": 0,
        "meta_mean_motion_dot": -6.8e-07,
        "meta_mean_motion_ddot": 0,
        "tle_line1": "1 41866U 16071A   25349.89380660 -.00000068  00000+0  00000+0 0  9996",
        "tle_line2": "2 41866   0.0710 103.1018 0003085 160.6869  38.0973  1.00271781 33262"
      },
      "geometry": {
        "type": "Point",
        "coordinates": [
          -111.27331181564874,
          0.009727261415949297
        ]
      }
    },
    {
      "type": "Feature",
      "properties": {
        "norad_id": 41882,
        "name": "FENGYUN 4A",
        "group": "weather",
        "lat": 1.0791192533478768,
        "lon": 117.14200586538644,
        "alt_km": 35793.66781604014,
        "timestamp": "2025-12-16T17:51:10.567178+00:00",
        "meta_object_name": "FENGYUN 4A",
        "meta_object_id": "2016-077A",
        "meta_epoch": "2025-12-15T22:32:13.652160",
        "meta_mean_motion": 1.00268369,
        "meta_eccentricity": 0.00045904,
        "meta_inclination": 1.8574,
        "meta_ra_of_asc_node": 82.3617,
        "meta_arg_of_pericenter": 144.5742,
        "meta_mean_anomaly": 319.7593,
        "meta_ephemeris_type": 0,
        "meta_classification_type": "U",
        "meta_norad_cat_id": 41882,
        "meta_element_set_no": 999,
        "meta_rev_at_epoch": 3309,
        "meta_bstar": 0,
        "meta_mean_motion_dot": -3.35e-06,
        "meta_mean_motion_ddot": 0,
        "tle_line1": "1 41882U 16077A   25349.93904690 -.00000335  00000+0  00000+0 0  9997",
        "tle_line2": "2 41882   1.8574  82.3617 0004590 144.5742 319.7593  1.00268369 33099"
      },
      "geometry": {
        "type": "Point",
        "coordinates": [
          117.14200586538644,
          1.0791192533478768
        ]
      }
    },
    {
      "type": "Feature",
      "properties": {
        "norad_id": 41884,
        "name": "CYGFM05",
        "group": "weather",
        "lat": 16.64773227395699,
        "lon": 46.312145065755644,
        "alt_km": 426.663659109985,
        "timestamp": "2025-12-16T17:51:10.567190+00:00",
        "meta_object_name": "CYGFM05",
        "meta_object_id": "2016-078A",
        "meta_epoch": "2025-12-15T12:18:41.333760",
        "meta_mean_motion": 15.47744098,
        "meta_eccentricity": 0.00104141,
        "meta_inclination": 34.9606,
        "meta_ra_of_asc_node": 29.0146,
        "meta_arg_of_pericenter": 208.5856,
        "meta_mean_anomaly": 151.4296,
        "meta_ephemeris_type": 0,
        "meta_classification_type": "U",
        "meta_norad_cat_id": 41884,
        "meta_element_set_no": 999,
        "meta_rev_at_epoch": 50019,
        "meta_bstar": 0.00028155696,
        "meta_mean_motion_dot": 0.00015046,
        "meta_mean_motion_ddot": 0,
        "tle_line1": "1 41884U 16078A   25349.51297840  .00015046  00000+0  28156-3 0  9996",
        "tle_line2": "2 41884  34.9606  29.0146 0010414 208.5856 151.4296 15.47744098500193"
      },
      "geometry": {
        "type": "Point",
        "coordinates": [
          46.312145065755644,
          16.64773227395699
        ]
      }
    },
    {
      "type": "Feature",
      "properties": {
        "norad_id": 41885,
        "name": "CYGFM04",
        "group": "weather",
        "lat": -26.403620600287145,
        "lon": -49.703156524356544,
        "alt_km": 413.8087557011895,
        "timestamp": "2025-12-16T17:51:10.567201+00:00",
        "meta_object_name": "CYGFM04",
        "meta_object_id": "2016-078B",
        "meta_epoch": "2025-12-15T11:09:59.207040",
        "meta_mean_motion": 15.50479719,
        "meta_eccentricity": 0.0009653,
        "meta_inclination": 34.9358,
        "meta_ra_of_asc_node": 4.0243,
        "meta_arg_of_pericenter": 233.842,
        "meta_mean_anomaly": 126.1409,
        "meta_ephemeris_type": 0,
        "meta_classification_type": "U",
        "meta_norad_cat_id": 41885,
        "meta_element_set_no": 999,
        "meta_rev_at_epoch": 50036,
        "meta_bstar": 0.00028304847,
        "meta_mean_motion_dot": 0.00016663,
        "meta_mean_motion_ddot": 0,
        "tle_line1": "1 41885U 16078B   25349.46526860  .00016663  00000+0  28305-3 0  9990",
        "tle_line2": "2 41885  34.9358   4.0243 0009653 233.8420 126.1409 15.50479719500363"
      },
      "geometry": {
        "type": "Point",
        "coordinates": [
          -49.703156524356544,
          -26.403620600287145
        ]
      }
    },
    {
      "type": "Feature",
      "properties": {
        "norad_id": 41886,
        "name": "CYGFM02",
        "group": "weather",
        "lat": -10.132333637291977,
        "lon": -20.921259712165142,
        "alt_km": 412.1140206602331,
        "timestamp": "2025-12-16T17:51:10.567212+00:00",
        "meta_object_name": "CYGFM02",
        "meta_object_id": "2016-078C",
        "meta_epoch": "2025-12-15T17:13:39.609984",
        "meta_mean_motion": 15.51876336,
        "meta_eccentricity": 0.00114029,
        "meta_inclination": 34.9446,
        "meta_ra_of_asc_node": 0.6542,
        "meta_arg_of_pericenter": 235.8895,
        "meta_mean_anomaly": 124.0747,
        "meta_ephemeris_type": 0,
        "meta_classification_type": "U",
        "meta_norad_cat_id": 41886,
        "meta_element_set_no": 999,
        "meta_rev_at_epoch": 50053,
        "meta_bstar": 0.00029878781,
        "meta_mean_motion_dot": 0.00018515,
        "meta_mean_motion_ddot": 0,
        "tle_line1": "1 41886U 16078C   25349.71781956  .00018515  00000+0  29879-3 0  9993",
        "tle_line2": "2 41886  34.9446   0.6542 0011402 235.8895 124.0747 15.51876336500537"
      },
      "geometry": {
        "type": "Point",
        "coordinates": [
          -20.921259712165142,
          -10.132333637291977
        ]
      }
    },
    {
      "type": "Feature",
      "properties": {
        "norad_id": 41887,
        "name": "CYGFM01",
        "group": "weather",
        "lat": 34.59349539775201,
        "lon": 104.3133660569232,
        "alt_km": 419.4560605191027,
        "timestamp": "2025-12-16T17:51:10.567223+00:00",
        "meta_object_name": "CYGFM01",
        "meta_object_id": "2016-078D",
        "meta_epoch": "2025-12-15T19:50:00.921120",
        "meta_mean_motion": 15.48337947,
        "meta_eccentricity": 0.00100727,
        "meta_inclination": 34.9437,
        "meta_ra_of_asc_node": 29.2944,
        "meta_arg_of_pericenter": 203.5246,
        "meta_mean_anomaly": 156.5015,
        "meta_ephemeris_type": 0,
        "meta_classification_type": "U",
        "meta_norad_cat_id": 41887,
        "meta_element_set_no": 999,
        "meta_rev_at_epoch": 50018,
        "meta_bstar": 0.00028934447,
        "meta_mean_motion_dot": 0.0001579,
        "meta_mean_motion_ddot": 0,
        "tle_line1": "1 41887U 16078D   25349.82639955  .00015790  00000+0  28934-3 0  9990",
        "tle_line2": "2 41887  34.9437  29.2944 0010072 203.5246 156.5015 15.48337947500180"
      },
      "geometry": {
        "type": "Point",
        "coordinates": [
          104.3133660569232,
          34.59349539775201
        ]
      }
    },
    {
      "type": "Feature",
      "properties": {
        "norad_id": 41888,
        "name": "CYGFM08",
        "group": "weather",
        "lat": 17.383481922805164,
        "lon": 159.60415205698303,
        "alt_km": 413.8250026408732,
        "timestamp": "2025-12-16T17:51:10.567234+00:00",
        "meta_object_name": "CYGFM08",
        "meta_object_id": "2016-078E",
        "meta_epoch": "2025-12-15T18:01:16.838976",
        "meta_mean_motion": 15.49547701,
        "meta_eccentricity": 0.00118083,
        "meta_inclination": 34.9467,
        "meta_ra_of_asc_node": 12.7455,
        "meta_arg_of_pericenter": 225.6417,
        "meta_mean_anomaly": 134.3338,
        "meta_ephemeris_type": 0,
        "meta_classification_type": "U",
        "meta_norad_cat_id": 41888,
        "meta_element_set_no": 999,
        "meta_rev_at_epoch": 50040,
        "meta_bstar": 0.00028629208,
        "meta_mean_motion_dot": 0.00016319,
        "meta_mean_motion_ddot": 0,
        "tle_line1": "1 41888U 16078E   25349.75088934  .00016319  00000+0  28629-3 0  9997",
        "tle_line2": "2 41888  34.9467  12.7455 0011808 225.6417 134.3338 15.49547701500400"
      },
      "geometry": {
        "type": "Point",
        "coordinates": [
          159.60415205698303,
          17.383481922805164
        ]
      }
    }
  ]
}